<?xml version="1.0" encoding="UTF-8"?>
<kml xmlns="http://www.opengis.net/kml/2.2" xmlns:gx="http://www.google.com/kml/ext/2.2" xmlns:kml="http://www.opengis.net/kml/2.2" xmlns:atom="http://www.w3.org/2005/Atom">
<Document>
	<name>Health fair locations.kml</name>
	<StyleMap id="m_ylw-pushpin">
		<Pair>
			<key>normal</key>
			<styleUrl>#s_ylw-pushpin</styleUrl>
		</Pair>
		<Pair>
			<key>highlight</key>
			<styleUrl>#s_ylw-pushpin_hl</styleUrl>
		</Pair>
	</StyleMap>
	<Style id="s_ylw-pushpin">
		<IconStyle>
			<scale>1.1</scale>
			<Icon>
				<href>http://maps.google.com/mapfiles/kml/pushpin/ylw-pushpin.png</href>
			</Icon>
			<hotSpot x="20" y="2" xunits="pixels" yunits="pixels"/>
		</IconStyle>
	</Style>
	<Style id="s_ylw-pushpin_hl">
		<IconStyle>
			<scale>1.3</scale>
			<Icon>
				<href>http://maps.google.com/mapfiles/kml/pushpin/ylw-pushpin.png</href>
			</Icon>
			<hotSpot x="20" y="2" xunits="pixels" yunits="pixels"/>
		</IconStyle>
	</Style>
	<Folder>
		<name>Health fair locations</name>
		<open>1</open>
		<Placemark>
			<name>General Registration</name>
			<LookAt>
				<longitude>-76.99959591437549</longitude>
				<latitude>17.98246765585995</latitude>
				<altitude>0</altitude>
				<heading>0.0002157649752970299</heading>
				<tilt>0</tilt>
				<range>181.5287073365531</range>
				<gx:altitudeMode>relativeToSeaFloor</gx:altitudeMode>
			</LookAt>
			<styleUrl>#m_ylw-pushpin</styleUrl>
			<Point>
				<gx:drawOrder>1</gx:drawOrder>
				<coordinates>-76.9999163667034,17.98207357479932,0</coordinates>
			</Point>
		</Placemark>
		<Placemark>
			<name>Medical Registration and forms completion</name>
			<LookAt>
				<longitude>-76.99991183507456</longitude>
				<latitude>17.98214500214256</latitude>
				<altitude>0</altitude>
				<heading>0.0001182289024688771</heading>
				<tilt>0</tilt>
				<range>181.5287073360441</range>
				<gx:altitudeMode>relativeToSeaFloor</gx:altitudeMode>
			</LookAt>
			<styleUrl>#m_ylw-pushpin</styleUrl>
			<Point>
				<gx:drawOrder>1</gx:drawOrder>
				<coordinates>-77.00035010854641,17.98164747362142,0</coordinates>
			</Point>
		</Placemark>
		<Placemark>
			<name>Doctors Quarters</name>
			<LookAt>
				<longitude>-76.99973315966216</longitude>
				<latitude>17.98192456191582</latitude>
				<altitude>0</altitude>
				<heading>0.0001733858797365015</heading>
				<tilt>0</tilt>
				<range>181.5287073349118</range>
				<gx:altitudeMode>relativeToSeaFloor</gx:altitudeMode>
			</LookAt>
			<styleUrl>#m_ylw-pushpin</styleUrl>
			<Point>
				<gx:drawOrder>1</gx:drawOrder>
				<coordinates>-76.99969755396482,17.98196396995198,0</coordinates>
			</Point>
		</Placemark>
		<Placemark>
			<name>Dentist office</name>
			<LookAt>
				<longitude>-76.99973315966216</longitude>
				<latitude>17.98192456191582</latitude>
				<altitude>0</altitude>
				<heading>0.0001733858797365015</heading>
				<tilt>0</tilt>
				<range>181.5287073349118</range>
				<gx:altitudeMode>relativeToSeaFloor</gx:altitudeMode>
			</LookAt>
			<styleUrl>#m_ylw-pushpin</styleUrl>
			<Point>
				<gx:drawOrder>1</gx:drawOrder>
				<coordinates>-76.99983479738545,17.98191471014607,0</coordinates>
			</Point>
		</Placemark>
		<Placemark>
			<name>Eye Testing </name>
			<LookAt>
				<longitude>-76.99973315966216</longitude>
				<latitude>17.98192456191582</latitude>
				<altitude>0</altitude>
				<heading>0.0001733858797365015</heading>
				<tilt>0</tilt>
				<range>181.5287073349118</range>
				<gx:altitudeMode>relativeToSeaFloor</gx:altitudeMode>
			</LookAt>
			<styleUrl>#m_ylw-pushpin</styleUrl>
			<Point>
				<gx:drawOrder>1</gx:drawOrder>
				<coordinates>-77.00021674846117,17.98207726944103,0</coordinates>
			</Point>
		</Placemark>
		<Placemark>
			<name>Exhibitors</name>
			<LookAt>
				<longitude>-76.99973315966216</longitude>
				<latitude>17.98192456191582</latitude>
				<altitude>0</altitude>
				<heading>0.0001733858797365015</heading>
				<tilt>0</tilt>
				<range>181.5287073349118</range>
				<gx:altitudeMode>relativeToSeaFloor</gx:altitudeMode>
			</LookAt>
			<styleUrl>#m_ylw-pushpin</styleUrl>
			<Point>
				<gx:drawOrder>1</gx:drawOrder>
				<coordinates>-76.9997584064585,17.98218564101102,0</coordinates>
			</Point>
		</Placemark>
		<atom:link rel="app" href="https://www.google.com/earth/about/versions/#earth-pro" title="Google Earth Pro 7.3.7.1155"></atom:link>
	</Folder>
</Document>
</kml>
